CCSDS_OMM_VERS = 2.0
CREATION_DATE  = 
ORIGINATOR     = 

OBJECT_NAME    = STARLINK-35633
OBJECT_ID      = 2025-240S
CENTER_NAME    = EARTH
REF_FRAME      = TEME
TIME_SYSTEM    = UTC
MEAN_ELEMENT_THEORY = SGP/SGP4

EPOCH          = 2025-11-18T04:00:03.000096
MEAN_MOTION    = 15.49298473
ECCENTRICITY   = .0000658
INCLINATION    = 53.1601
RA_OF_ASC_NODE = 221.9326
ARG_OF_PERICENTER = 76.7417
MEAN_ANOMALY   = 80.2088

EPHEMERIS_TYPE = 0
CLASSIFICATION_TYPE = U
NORAD_CAT_ID   = 66162
ELEMENT_SET_NO = 999
REV_AT_EPOCH   = 495
BSTAR          = .82215E-4
MEAN_MOTION_DOT = .4125E-4
MEAN_MOTION_DDOT = 0

CCSDS_OMM_VERS = 2.0
CREATION_DATE  = 
ORIGINATOR     = 

OBJECT_NAME    = STARLINK-35607
OBJECT_ID      = 2025-240T
CENTER_NAME    = EARTH
REF_FRAME      = TEME
TIME_SYSTEM    = UTC
MEAN_ELEMENT_THEORY = SGP/SGP4

EPOCH          = 2025-11-18T04:00:03.000096
MEAN_MOTION    = 15.49299310
ECCENTRICITY   = .0000683
INCLINATION    = 53.1601
RA_OF_ASC_NODE = 221.9289
ARG_OF_PERICENTER = 76.2511
MEAN_ANOMALY   = 82.6171

EPHEMERIS_TYPE = 0
CLASSIFICATION_TYPE = U
NORAD_CAT_ID   = 66163
ELEMENT_SET_NO = 999
REV_AT_EPOCH   = 495
BSTAR          = .39577E-4
MEAN_MOTION_DOT = .1753E-4
MEAN_MOTION_DDOT = 0

CCSDS_OMM_VERS = 2.0
CREATION_DATE  = 
ORIGINATOR     = 

OBJECT_NAME    = STARLINK-35614
OBJECT_ID      = 2025-240U
CENTER_NAME    = EARTH
REF_FRAME      = TEME
TIME_SYSTEM    = UTC
MEAN_ELEMENT_THEORY = SGP/SGP4

EPOCH          = 2025-11-18T04:00:03.000096
MEAN_MOTION    = 15.49303683
ECCENTRICITY   = .0001204
INCLINATION    = 53.1602
RA_OF_ASC_NODE = 221.9196
ARG_OF_PERICENTER = 78.5757
MEAN_ANOMALY   = 84.1188

EPHEMERIS_TYPE = 0
CLASSIFICATION_TYPE = U
NORAD_CAT_ID   = 66164
ELEMENT_SET_NO = 999
REV_AT_EPOCH   = 495
BSTAR          = .31522E-4
MEAN_MOTION_DOT = .1305E-4
MEAN_MOTION_DDOT = 0

CCSDS_OMM_VERS = 2.0
CREATION_DATE  = 
ORIGINATOR     = 

OBJECT_NAME    = STARLINK-35575
OBJECT_ID      = 2025-240V
CENTER_NAME    = EARTH
REF_FRAME      = TEME
TIME_SYSTEM    = UTC
MEAN_ELEMENT_THEORY = SGP/SGP4

EPOCH          = 2025-11-18T04:00:03.000096
MEAN_MOTION    = 15.49301672
ECCENTRICITY   = .0001143
INCLINATION    = 53.1602
RA_OF_ASC_NODE = 221.9243
ARG_OF_PERICENTER = 77.6370
MEAN_ANOMALY   = 83.1441

EPHEMERIS_TYPE = 0
CLASSIFICATION_TYPE = U
NORAD_CAT_ID   = 66165
ELEMENT_SET_NO = 999
REV_AT_EPOCH   = 495
BSTAR          = .2969E-4
MEAN_MOTION_DOT = .1203E-4
MEAN_MOTION_DDOT = 0

CCSDS_OMM_VERS = 2.0
CREATION_DATE  = 
ORIGINATOR     = 

OBJECT_NAME    = STARLINK-35624
OBJECT_ID      = 2025-240W
CENTER_NAME    = EARTH
REF_FRAME      = TEME
TIME_SYSTEM    = UTC
MEAN_ELEMENT_THEORY = SGP/SGP4

EPOCH          = 2025-11-18T04:00:03.000096
MEAN_MOTION    = 15.49211052
ECCENTRICITY   = .0000396
INCLINATION    = 53.1602
RA_OF_ASC_NODE = 221.9128
ARG_OF_PERICENTER = 91.7553
MEAN_ANOMALY   = 74.8139

EPHEMERIS_TYPE = 0
CLASSIFICATION_TYPE = U
NORAD_CAT_ID   = 66166
ELEMENT_SET_NO = 999
REV_AT_EPOCH   = 495
BSTAR          = .28978E-2
MEAN_MOTION_DOT = .163572E-2
MEAN_MOTION_DDOT = 0

CCSDS_OMM_VERS = 2.0
CREATION_DATE  = 
ORIGINATOR     = 

OBJECT_NAME    = STARLINK-35641
OBJECT_ID      = 2025-240X
CENTER_NAME    = EARTH
REF_FRAME      = TEME
TIME_SYSTEM    = UTC
MEAN_ELEMENT_THEORY = SGP/SGP4

EPOCH          = 2025-11-18T04:00:03.000096
MEAN_MOTION    = 15.49296768
ECCENTRICITY   = .0000586
INCLINATION    = 53.1601
RA_OF_ASC_NODE = 221.9164
ARG_OF_PERICENTER = 76.8331
MEAN_ANOMALY   = 87.7888

EPHEMERIS_TYPE = 0
CLASSIFICATION_TYPE = U
NORAD_CAT_ID   = 66167
ELEMENT_SET_NO = 999
REV_AT_EPOCH   = 495
BSTAR          = .59475E-4
MEAN_MOTION_DOT = .286E-4
MEAN_MOTION_DDOT = 0

CCSDS_OMM_VERS = 2.0
CREATION_DATE  = 
ORIGINATOR     = 

OBJECT_NAME    = STARLINK-35578
OBJECT_ID      = 2025-240Y
CENTER_NAME    = EARTH
REF_FRAME      = TEME
TIME_SYSTEM    = UTC
MEAN_ELEMENT_THEORY = SGP/SGP4

EPOCH          = 2025-11-18T04:00:03.000096
MEAN_MOTION    = 15.49213149
ECCENTRICITY   = .000052
INCLINATION    = 53.1602
RA_OF_ASC_NODE = 221.9007
ARG_OF_PERICENTER = 99.5328
MEAN_ANOMALY   = 72.7842

EPHEMERIS_TYPE = 0
CLASSIFICATION_TYPE = U
NORAD_CAT_ID   = 66168
ELEMENT_SET_NO = 999
REV_AT_EPOCH   = 495
BSTAR          = .28693E-2
MEAN_MOTION_DOT = .161936E-2
MEAN_MOTION_DDOT = 0

CCSDS_OMM_VERS = 2.0
CREATION_DATE  = 
ORIGINATOR     = 

OBJECT_NAME    = STARLINK-35638
OBJECT_ID      = 2025-240Z
CENTER_NAME    = EARTH
REF_FRAME      = TEME
TIME_SYSTEM    = UTC
MEAN_ELEMENT_THEORY = SGP/SGP4

EPOCH          = 2025-11-18T04:00:03.000096
MEAN_MOTION    = 15.49303973
ECCENTRICITY   = .0001212
INCLINATION    = 53.1602
RA_OF_ASC_NODE = 221.9079
ARG_OF_PERICENTER = 83.0026
MEAN_ANOMALY   = 85.4494

EPHEMERIS_TYPE = 0
CLASSIFICATION_TYPE = U
NORAD_CAT_ID   = 66169
ELEMENT_SET_NO = 999
REV_AT_EPOCH   = 495
BSTAR          = -.10411E-3
MEAN_MOTION_DOT = -.6233E-4
MEAN_MOTION_DDOT = 0

CCSDS_OMM_VERS = 2.0
CREATION_DATE  = 
ORIGINATOR     = 

OBJECT_NAME    = STARLINK-35585
OBJECT_ID      = 2025-240AA
CENTER_NAME    = EARTH
REF_FRAME      = TEME
TIME_SYSTEM    = UTC
MEAN_ELEMENT_THEORY = SGP/SGP4

EPOCH          = 2025-11-18T04:00:03.000096
MEAN_MOTION    = 15.49306386
ECCENTRICITY   = .0001137
INCLINATION    = 53.1602
RA_OF_ASC_NODE = 221.8965
ARG_OF_PERICENTER = 74.3401
MEAN_ANOMALY   = 99.8556

EPHEMERIS_TYPE = 0
CLASSIFICATION_TYPE = U
NORAD_CAT_ID   = 66170
ELEMENT_SET_NO = 999
REV_AT_EPOCH   = 495
BSTAR          = -.10372E-3
MEAN_MOTION_DOT = -.6211E-4
MEAN_MOTION_DDOT = 0

CCSDS_OMM_VERS = 2.0
CREATION_DATE  = 
ORIGINATOR     = 

OBJECT_NAME    = STARLINK-35606
OBJECT_ID      = 2025-240AB
CENTER_NAME    = EARTH
REF_FRAME      = TEME
TIME_SYSTEM    = UTC
MEAN_ELEMENT_THEORY = SGP/SGP4

EPOCH          = 2025-11-18T04:00:03.000096
MEAN_MOTION    = 15.49293300
ECCENTRICITY   = .0000629
INCLINATION    = 53.1602
RA_OF_ASC_NODE = 221.8919
ARG_OF_PERICENTER = 87.1543
MEAN_ANOMALY   = 88.9700

EPHEMERIS_TYPE = 0
CLASSIFICATION_TYPE = U
NORAD_CAT_ID   = 66171
ELEMENT_SET_NO = 999
REV_AT_EPOCH   = 495
BSTAR          = .13962E-3
MEAN_MOTION_DOT = .732E-4
MEAN_MOTION_DDOT = 0

CCSDS_OMM_VERS = 2.0
CREATION_DATE  = 
ORIGINATOR     = 

OBJECT_NAME    = STARLINK-35627
OBJECT_ID      = 2025-240AC
CENTER_NAME    = EARTH
REF_FRAME      = TEME
TIME_SYSTEM    = UTC
MEAN_ELEMENT_THEORY = SGP/SGP4

EPOCH          = 2025-11-18T04:00:03.000096
MEAN_MOTION    = 15.49300759
ECCENTRICITY   = .000052
INCLINATION    = 53.1601
RA_OF_ASC_NODE = 221.9042
ARG_OF_PERICENTER = 87.8820
MEAN_ANOMALY   = 82.4876

EPHEMERIS_TYPE = 0
CLASSIFICATION_TYPE = U
NORAD_CAT_ID   = 66172
ELEMENT_SET_NO = 999
REV_AT_EPOCH   = 495
BSTAR          = -.115E-4
MEAN_MOTION_DOT = -.1087E-4
MEAN_MOTION_DDOT = 0

CCSDS_OMM_VERS = 2.0
CREATION_DATE  = 
ORIGINATOR     = 

OBJECT_NAME    = STARLINK-35634
OBJECT_ID      = 2025-240AD
CENTER_NAME    = EARTH
REF_FRAME      = TEME
TIME_SYSTEM    = UTC
MEAN_ELEMENT_THEORY = SGP/SGP4

EPOCH          = 2025-11-18T04:00:03.000096
MEAN_MOTION    = 15.49222358
ECCENTRICITY   = .0000511
INCLINATION    = 53.1602
RA_OF_ASC_NODE = 221.8885
ARG_OF_PERICENTER = 97.3164
MEAN_ANOMALY   = 80.7370

EPHEMERIS_TYPE = 0
CLASSIFICATION_TYPE = U
NORAD_CAT_ID   = 66173
ELEMENT_SET_NO = 999
REV_AT_EPOCH   = 495
BSTAR          = .28269E-2
MEAN_MOTION_DOT = .159536E-2
MEAN_MOTION_DDOT = 0

