STARLINK-35633          
1 66162U 25240S   25322.16670139  .00004125  00000+0  82215-4 0  9994
2 66162  53.1601 221.9326 0000658  76.7417  80.2088 15.49298473  4951
STARLINK-35607          
1 66163U 25240T   25322.16670139  .00001753  00000+0  39577-4 0  9992
2 66163  53.1601 221.9289 0000683  76.2511  82.6171 15.49299310  4958
STARLINK-35614          
1 66164U 25240U   25322.16670139  .00001305  00000+0  31522-4 0  9998
2 66164  53.1602 221.9196 0001204  78.5757  84.1188 15.49303683  4958
STARLINK-35575          
1 66165U 25240V   25322.16670139  .00001203  00000+0  29690-4 0  9999
2 66165  53.1602 221.9243 0001143  77.6370  83.1441 15.49301672  4952
STARLINK-35624          
1 66166U 25240W   25322.16670139  .00163572  00000+0  28978-2 0  9994
2 66166  53.1602 221.9128 0000396  91.7553  74.8139 15.49211052  4957
STARLINK-35641          
1 66167U 25240X   25322.16670139  .00002860  00000+0  59475-4 0  9995
2 66167  53.1601 221.9164 0000586  76.8331  87.7888 15.49296768  4957
STARLINK-35578          
1 66168U 25240Y   25322.16670139  .00161936  00000+0  28693-2 0  9992
2 66168  53.1602 221.9007 0000520  99.5328  72.7842 15.49213149  4957
STARLINK-35638          
1 66169U 25240Z   25322.16670139 -.00006233  00000+0 -10411-3 0  9993
2 66169  53.1602 221.9079 0001212  83.0026  85.4494 15.49303973  4958
STARLINK-35585          
1 66170U 25240AA  25322.16670139 -.00006211  00000+0 -10372-3 0  9997
2 66170  53.1602 221.8965 0001137  74.3401  99.8556 15.49306386  4958
STARLINK-35606          
1 66171U 25240AB  25322.16670139  .00007320  00000+0  13962-3 0  9996
2 66171  53.1602 221.8919 0000629  87.1543  88.9700 15.49293300  4953
STARLINK-35627          
1 66172U 25240AC  25322.16670139 -.00001087  00000+0 -11500-4 0  9990
2 66172  53.1601 221.9042 0000520  87.8820  82.4876 15.49300759  4956
STARLINK-35634          
1 66173U 25240AD  25322.16670139  .00159536  00000+0  28269-2 0  9990
2 66173  53.1602 221.8885 0000511  97.3164  80.7370 15.49222358  4957
